{"type": "FeatureCollection", "features": [ {"type": "Feature", "properties": {"norad_id": 66627, "name": "STARLINK-35904", "group": "last-30-days", "lat": 18.641698648437675, "lon": -144.4370399963875, "alt_km": 379.12939194793216, "timestamp": "2025-12-09T21:34:10.196660+00:00", "meta": {"OBJECT_NAME": "STARLINK-35904", "OBJECT_ID": "2025-271L", "EPOCH": "2025-12-09T14:00:01.999872", "MEAN_MOTION": 15.63703213, "ECCENTRICITY": 8.511e-05, "INCLINATION": 53.1594, "RA_OF_ASC_NODE": 202.452, "ARG_OF_PERICENTER": 109.7323, "MEAN_ANOMALY": 298.3504, "EPHEMERIS_TYPE": 0, "CLASSIFICATION_TYPE": "U", "NORAD_CAT_ID": 66627, "ELEMENT_SET_NO": 999, "REV_AT_EPOCH": 357, "BSTAR": -0.023742515, "MEAN_MOTION_DOT": -0.01986065, "MEAN_MOTION_DDOT": 0}, "tle": {"line1": "1 66627U 25271L   25343.58335648 -.01986065  00000+0 -23743-1 0  9999", "line2": "2 66627  53.1594 202.4520 0000851 109.7323 298.3504 15.63703213  3577"}}, "geometry": {"type": "Point", "coordinates": [-144.4370399963875, 18.641698648437675]}}, {"type": "Feature", "properties": {"norad_id": 66628, "name": "STARLINK-35862", "group": "last-30-days", "lat": 20.122086527670636, "lon": -143.14770500412746, "alt_km": 378.77252893357127, "timestamp": "2025-12-09T21:34:10.196671+00:00", "meta": {"OBJECT_NAME": "STARLINK-35862", "OBJECT_ID": "2025-271M", "EPOCH": "2025-12-09T14:00:01.999872", "MEAN_MOTION": 15.63706245, "ECCENTRICITY": 8.78e-05, "INCLINATION": 53.159, "RA_OF_ASC_NODE": 202.4479, "ARG_OF_PERICENTER": 100.5742, "MEAN_ANOMALY": 309.4222, "EPHEMERIS_TYPE": 0, "CLASSIFICATION_TYPE": "U", "NORAD_CAT_ID": 66628, "ELEMENT_SET_NO": 999, "REV_AT_EPOCH": 373, "BSTAR": -0.023757014, "MEAN_MOTION_DOT": -0.0198736, "MEAN_MOTION_DDOT": 0}, "tle": {"line1": "1 66628U 25271M   25343.58335648 -.01987360  00000+0 -23757-1 0  9994", "line2": "2 66628  53.1590 202.4479 0000878 100.5742 309.4222 15.63706245  3737"}}, "geometry": {"type": "Point", "coordinates": [-143.14770500412746, 20.122086527670636]}}, {"type": "Feature", "properties": {"norad_id": 66629, "name": "STARLINK-35956", "group": "last-30-days", "lat": 21.59304090702923, "lon": -141.8332039010559, "alt_km": 378.57998083877465, "timestamp": "2025-12-09T21:34:10.196681+00:00", "meta": {"OBJECT_NAME": "STARLINK-35956", "OBJECT_ID": "2025-271N", "EPOCH": "2025-12-09T14:00:01.999872", "MEAN_MOTION": 15.637001, "ECCENTRICITY": 8.586e-05, "INCLINATION": 53.1594, "RA_OF_ASC_NODE": 202.4446, "ARG_OF_PERICENTER": 106.0528, "MEAN_ANOMALY": 305.8644, "EPHEMERIS_TYPE": 0, "CLASSIFICATION_TYPE": "U", "NORAD_CAT_ID": 66629, "ELEMENT_SET_NO": 999, "REV_AT_EPOCH": 373, "BSTAR": -0.023676717, "MEAN_MOTION_DOT": -0.01981017, "MEAN_MOTION_DDOT": 0}, "tle": {"line1": "1 66629U 25271N   25343.58335648 -.01981017  00000+0 -23677-1 0  9999", "line2": "2 66629  53.1594 202.4446 0000858 106.0528 305.8644 15.63700100  3739"}}, "geometry": {"type": "Point", "coordinates": [-141.8332039010559, 21.59304090702923]}}, {"type": "Feature", "properties": {"norad_id": 66630, "name": "STARLINK-35949", "group": "last-30-days", "lat": 23.05355117603441, "lon": -140.49332531459382, "alt_km": 378.333331728184, "timestamp": "2025-12-09T21:34:10.196691+00:00", "meta": {"OBJECT_NAME": "STARLINK-35949", "OBJECT_ID": "2025-271P", "EPOCH": "2025-12-09T14:00:01.999872", "MEAN_MOTION": 15.63702142, "ECCENTRICITY": 8.722e-05, "INCLINATION": 53.1593, "RA_OF_ASC_NODE": 202.4393, "ARG_OF_PERICENTER": 107.1526, "MEAN_ANOMALY": 306.6801, "EPHEMERIS_TYPE": 0, "CLASSIFICATION_TYPE": "U", "NORAD_CAT_ID": 66630, "ELEMENT_SET_NO": 999, "REV_AT_EPOCH": 373, "BSTAR": -0.02369943, "MEAN_MOTION_DOT": -0.01982838, "MEAN_MOTION_DDOT": 0}, "tle": {"line1": "1 66630U 25271P   25343.58335648 -.01982838  00000+0 -23699-1 0  9997", "line2": "2 66630  53.1593 202.4393 0000872 107.1526 306.6801 15.63702142  3739"}}, "geometry": {"type": "Point", "coordinates": [-140.49332531459382, 23.05355117603441]}}, {"type": "Feature", "properties": {"norad_id": 66631, "name": "STARLINK-35965", "group": "last-30-days", "lat": 24.50224843617961, "lon": -139.1222502295158, "alt_km": 378.1098690317167, "timestamp": "2025-12-09T21:34:10.196700+00:00", "meta": {"OBJECT_NAME": "STARLINK-35965", "OBJECT_ID": "2025-271Q", "EPOCH": "2025-12-09T14:00:01.999872", "MEAN_MOTION": 15.63703151, "ECCENTRICITY": 8.648e-05, "INCLINATION": 53.1591, "RA_OF_ASC_NODE": 202.4359, "ARG_OF_PERICENTER": 109.7339, "MEAN_ANOMALY": 306.0153, "EPHEMERIS_TYPE": 0, "CLASSIFICATION_TYPE": "U", "NORAD_CAT_ID": 66631, "ELEMENT_SET_NO": 999, "REV_AT_EPOCH": 373, "BSTAR": -0.023731307, "MEAN_MOTION_DOT": -0.01985247, "MEAN_MOTION_DDOT": 0}, "tle": {"line1": "1 66631U 25271Q   25343.58335648 -.01985247  00000+0 -23731-1 0  9992", "line2": "2 66631  53.1591 202.4359 0000864 109.7339 306.0153 15.63703151  3736"}}, "geometry": {"type": "Point", "coordinates": [-139.1222502295158, 24.50224843617961]}}, {"type": "Feature", "properties": {"norad_id": 66632, "name": "STARLINK-35973", "group": "last-30-days", "lat": 25.9395810997316, "lon": -137.71887746938847, "alt_km": 377.7992051926576, "timestamp": "2025-12-09T21:34:10.196710+00:00", "meta": {"OBJECT_NAME": "STARLINK-35973", "OBJECT_ID": "2025-271R", "EPOCH": "2025-12-09T14:00:01.999872", "MEAN_MOTION": 15.63704471, "ECCENTRICITY": 9.029e-05, "INCLINATION": 53.1594, "RA_OF_ASC_NODE": 202.4319, "ARG_OF_PERICENTER": 104.3799, "MEAN_ANOMALY": 313.2871, "EPHEMERIS_TYPE": 0, "CLASSIFICATION_TYPE": "U", "NORAD_CAT_ID": 66632, "ELEMENT_SET_NO": 999, "REV_AT_EPOCH": 367, "BSTAR": -0.023763292, "MEAN_MOTION_DOT": -0.01987715, "MEAN_MOTION_DDOT": 0}, "tle": {"line1": "1 66632U 25271R   25343.58335648 -.01987715  00000+0 -23763-1 0  9990", "line2": "2 66632  53.1594 202.4319 0000902 104.3799 313.2871 15.63704471  3676"}}, "geometry": {"type": "Point", "coordinates": [-137.71887746938847, 25.9395810997316]}}, {"type": "Feature", "properties": {"norad_id": 66633, "name": "STARLINK-35948", "group": "last-30-days", "lat": 27.359990134539, "lon": -136.28476925173885, "alt_km": 377.57892901702326, "timestamp": "2025-12-09T21:34:10.196720+00:00", "meta": {"OBJECT_NAME": "STARLINK-35948", "OBJECT_ID": "2025-271S", "EPOCH": "2025-12-09T14:00:01.999872", "MEAN_MOTION": 15.63697462, "ECCENTRICITY": 8.862e-05, "INCLINATION": 53.1593, "RA_OF_ASC_NODE": 202.4268, "ARG_OF_PERICENTER": 107.7513, "MEAN_ANOMALY": 311.8322, "EPHEMERIS_TYPE": 0, "CLASSIFICATION_TYPE": "U", "NORAD_CAT_ID": 66633, "ELEMENT_SET_NO": 999, "REV_AT_EPOCH": 373, "BSTAR": -0.023599464, "MEAN_MOTION_DOT": -0.01975171, "MEAN_MOTION_DDOT": 0}, "tle": {"line1": "1 66633U 25271S   25343.58335648 -.01975171  00000+0 -23599-1 0  9991", "line2": "2 66633  53.1593 202.4268 0000886 107.7513 311.8322 15.63697462  3734"}}, "geometry": {"type": "Point", "coordinates": [-136.28476925173885, 27.359990134539]}}, {"type": "Feature", "properties": {"norad_id": 66634, "name": "STARLINK-35967", "group": "last-30-days", "lat": 28.768743851333298, "lon": -134.80890753354456, "alt_km": 377.2862722974278, "timestamp": "2025-12-09T21:34:10.196732+00:00", "meta": {"OBJECT_NAME": "STARLINK-35967", "OBJECT_ID": "2025-271T", "EPOCH": "2025-12-09T14:00:01.999872", "MEAN_MOTION": 15.63703352, "ECCENTRICITY": 9.319e-05, "INCLINATION": 53.1594, "RA_OF_ASC_NODE": 202.4227, "ARG_OF_PERICENTER": 103.8876, "MEAN_ANOMALY": 317.6123, "EPHEMERIS_TYPE": 0, "CLASSIFICATION_TYPE": "U", "NORAD_CAT_ID": 66634, "ELEMENT_SET_NO": 999, "REV_AT_EPOCH": 366, "BSTAR": -0.02372052, "MEAN_MOTION_DOT": -0.01984515, "MEAN_MOTION_DDOT": 0}, "tle": {"line1": "1 66634U 25271T   25343.58335648 -.01984515  00000+0 -23721-1 0  9991", "line2": "2 66634  53.1594 202.4227 0000931 103.8876 317.6123 15.63703352  3662"}}, "geometry": {"type": "Point", "coordinates": [-134.80890753354456, 28.768743851333298]}}, {"type": "Feature", "properties": {"norad_id": 66635, "name": "STARLINK-35955", "group": "last-30-days", "lat": 30.159108992201034, "lon": -133.29412799800102, "alt_km": 377.07755098948473, "timestamp": "2025-12-09T21:34:10.196745+00:00", "meta": {"OBJECT_NAME": "STARLINK-35955", "OBJECT_ID": "2025-271U", "EPOCH": "2025-12-09T14:00:01.999872", "MEAN_MOTION": 15.63706666, "ECCENTRICITY": 9.104e-05, "INCLINATION": 53.1591, "RA_OF_ASC_NODE": 202.4189, "ARG_OF_PERICENTER": 106.9916, "MEAN_ANOMALY": 316.4227, "EPHEMERIS_TYPE": 0, "CLASSIFICATION_TYPE": "U", "NORAD_CAT_ID": 66635, "ELEMENT_SET_NO": 999, "REV_AT_EPOCH": 373, "BSTAR": -0.023774597, "MEAN_MOTION_DOT": -0.01988704, "MEAN_MOTION_DDOT": 0}, "tle": {"line1": "1 66635U 25271U   25343.58335648 -.01988704  00000+0 -23775-1 0  9995", "line2": "2 66635  53.1591 202.4189 0000910 106.9916 316.4227 15.63706666  3734"}}, "geometry": {"type": "Point", "coordinates": [-133.29412799800102, 30.159108992201034]}}, {"type": "Feature", "properties": {"norad_id": 66636, "name": "STARLINK-35968", "group": "last-30-days", "lat": 31.532242621480375, "lon": -131.73609704285437, "alt_km": 376.86062005647636, "timestamp": "2025-12-09T21:34:10.196755+00:00", "meta": {"OBJECT_NAME": "STARLINK-35968", "OBJECT_ID": "2025-271V", "EPOCH": "2025-12-09T14:00:01.999872", "MEAN_MOTION": 15.63705764, "ECCENTRICITY": 9.19e-05, "INCLINATION": 53.159, "RA_OF_ASC_NODE": 202.4145, "ARG_OF_PERICENTER": 109.2159, "MEAN_ANOMALY": 316.1173, "EPHEMERIS_TYPE": 0, "CLASSIFICATION_TYPE": "U", "NORAD_CAT_ID": 66636, "ELEMENT_SET_NO": 999, "REV_AT_EPOCH": 373, "BSTAR": -0.023788738, "MEAN_MOTION_DOT": -0.01989687, "MEAN_MOTION_DDOT": 0}, "tle": {"line1": "1 66636U 25271V   25343.58335648 -.01989687  00000+0 -23789-1 0  9992", "line2": "2 66636  53.1590 202.4145 0000919 109.2159 316.1173 15.63705764  3735"}}, "geometry": {"type": "Point", "coordinates": [-131.73609704285437, 31.532242621480375]}}]}